[{"OBJECT_NAME":"OBJECT A","OBJECT_ID":"2023-189A","EPOCH":"2026-03-09T22:59:06.381600","MEAN_MOTION":15.32403275,"ECCENTRICITY":0.00094831,"INCLINATION":97.4458,"RA_OF_ASC_NODE":86.5997,"ARG_OF_PERICENTER":249.5377,"MEAN_ANOMALY":110.4847,"EPHEMERIS_TYPE":0,"CLASSIFICATION_TYPE":"U","NORAD_CAT_ID":58502,"ELEMENT_SET_NO":999,"REV_AT_EPOCH":12601,"BSTAR":0.00019874471,"MEAN_MOTION_DOT":6.146e-5,"MEAN_MOTION_DDOT":0},{"OBJECT_NAME":"STARLINK-31780","OBJECT_ID":"2024-065M","EPOCH":"2026-03-09T20:21:36.400608","MEAN_MOTION":15.30188189,"ECCENTRICITY":0.00013265,"INCLINATION":53.1605,"RA_OF_ASC_NODE":280.9375,"ARG_OF_PERICENTER":91.6245,"MEAN_ANOMALY":268.4908,"EPHEMERIS_TYPE":0,"CLASSIFICATION_TYPE":"U","NORAD_CAT_ID":59432,"ELEMENT_SET_NO":999,"REV_AT_EPOCH":10895,"BSTAR":3.5900081e-5,"MEAN_MOTION_DOT":7.04e-6,"MEAN_MOTION_DDOT":0}]
